{
  "links" : {
    "next" : "https://api.nasa.gov/neo/rest/v1/feed?start_date=2004-01-16&end_date=2004-01-16&detailed=true&api_key=t0TVs3DtDT2H8Oy2Zy8m2eVrNsAVKAexjcZXUckd",
    "prev" : "https://api.nasa.gov/neo/rest/v1/feed?start_date=2004-01-14&end_date=2004-01-14&detailed=true&api_key=t0TVs3DtDT2H8Oy2Zy8m2eVrNsAVKAexjcZXUckd",
    "self" : "https://api.nasa.gov/neo/rest/v1/feed?start_date=2004-01-15&end_date=2004-01-15&detailed=true&api_key=t0TVs3DtDT2H8Oy2Zy8m2eVrNsAVKAexjcZXUckd"
  },
  "element_count" : 5,
  "near_earth_objects" : {
    "2004-01-15" : [ {
      "links" : {
        "self" : "https://api.nasa.gov/neo/rest/v1/neo/2230111?api_key=t0TVs3DtDT2H8Oy2Zy8m2eVrNsAVKAexjcZXUckd"
      },
      "neo_reference_id" : "2230111",
      "name" : "230111 (2001 BE10)",
      "nasa_jpl_url" : "http://ssd.jpl.nasa.gov/sbdb.cgi?sstr=2230111",
      "absolute_magnitude_h" : 19.1,
      "estimated_diameter" : {
        "kilometers" : {
          "estimated_diameter_min" : 0.4023045798,
          "estimated_diameter_max" : 0.8995803882
        },
        "meters" : {
          "estimated_diameter_min" : 402.3045798343,
          "estimated_diameter_max" : 899.5803881691
        },
        "miles" : {
          "estimated_diameter_min" : 0.2499803991,
          "estimated_diameter_max" : 0.5589731654
        },
        "feet" : {
          "estimated_diameter_min" : 1319.8969577037,
          "estimated_diameter_max" : 2951.3793207207
        }
      },
      "is_potentially_hazardous_asteroid" : true,
      "close_approach_data" : [ {
        "close_approach_date" : "2004-01-15",
        "epoch_date_close_approach" : 1074153600000,
        "relative_velocity" : {
          "kilometers_per_second" : "11.7557529671",
          "kilometers_per_hour" : "42320.7106814988",
          "miles_per_hour" : "26296.443812068"
        },
        "miss_distance" : {
          "astronomical" : "0.0599816878",
          "lunar" : "23.3328762054",
          "kilometers" : "8973133",
          "miles" : "5575646.5"
        },
        "orbiting_body" : "Earth"
      } ],
      "orbital_data" : {
        "orbit_id" : "113",
        "orbit_determination_date" : "2017-04-06 09:25:10",
        "orbit_uncertainty" : "0",
        "minimum_orbit_intersection" : ".0423433",
        "jupiter_tisserand_invariant" : "7.026",
        "epoch_osculation" : "2458000.5",
        "eccentricity" : ".3691459782374203",
        "semi_major_axis" : ".8231696306005475",
        "inclination" : "17.50753782837232",
        "ascending_node_longitude" : "297.7973710117565",
        "orbital_period" : "272.7925064315339",
        "perihelion_distance" : ".5192998720571724",
        "perihelion_argument" : "30.57114985389649",
        "aphelion_distance" : "1.127039389143923",
        "perihelion_time" : "2458113.728986495010",
        "mean_anomaly" : "210.5734791932989",
        "mean_motion" : "1.319684344373124",
        "equinox" : "J2000"
      }
    }, {
      "links" : {
        "self" : "https://api.nasa.gov/neo/rest/v1/neo/2310442?api_key=t0TVs3DtDT2H8Oy2Zy8m2eVrNsAVKAexjcZXUckd"
      },
      "neo_reference_id" : "2310442",
      "name" : "310442 (2000 CH59)",
      "nasa_jpl_url" : "http://ssd.jpl.nasa.gov/sbdb.cgi?sstr=2310442",
      "absolute_magnitude_h" : 19.9,
      "estimated_diameter" : {
        "kilometers" : {
          "estimated_diameter_min" : 0.2783267681,
          "estimated_diameter_max" : 0.6223575734
        },
        "meters" : {
          "estimated_diameter_min" : 278.3267680719,
          "estimated_diameter_max" : 622.3575733667
        },
        "miles" : {
          "estimated_diameter_min" : 0.1729441822,
          "estimated_diameter_max" : 0.3867149477
        },
        "feet" : {
          "estimated_diameter_min" : 913.1455937611,
          "estimated_diameter_max" : 2041.8556210042
        }
      },
      "is_potentially_hazardous_asteroid" : true,
      "close_approach_data" : [ {
        "close_approach_date" : "2004-01-15",
        "epoch_date_close_approach" : 1074153600000,
        "relative_velocity" : {
          "kilometers_per_second" : "9.2119808112",
          "kilometers_per_hour" : "33163.1309201787",
          "miles_per_hour" : "20606.2798764855"
        },
        "miss_distance" : {
          "astronomical" : "0.1996531555",
          "lunar" : "77.6650772095",
          "kilometers" : "29867686",
          "miles" : "18558920"
        },
        "orbiting_body" : "Earth"
      } ],
      "orbital_data" : {
        "orbit_id" : "81",
        "orbit_determination_date" : "2017-04-06 09:23:55",
        "orbit_uncertainty" : "0",
        "minimum_orbit_intersection" : ".0229001",
        "jupiter_tisserand_invariant" : "6.767",
        "epoch_osculation" : "2458000.5",
        "eccentricity" : ".4232528647577689",
        "semi_major_axis" : ".8629126796702004",
        "inclination" : "3.26770413467341",
        "ascending_node_longitude" : "213.9395383398394",
        "orbital_period" : "292.7849188366279",
        "perihelion_distance" : ".4976824159639851",
        "perihelion_argument" : "109.272789769373",
        "aphelion_distance" : "1.228142943376416",
        "perihelion_time" : "2457895.681806851784",
        "mean_anomaly" : "128.8814659009586",
        "mean_motion" : "1.229571527899897",
        "equinox" : "J2000"
      }
    }, {
      "links" : {
        "self" : "https://api.nasa.gov/neo/rest/v1/neo/2426082?api_key=t0TVs3DtDT2H8Oy2Zy8m2eVrNsAVKAexjcZXUckd"
      },
      "neo_reference_id" : "2426082",
      "name" : "426082 (2012 DG31)",
      "nasa_jpl_url" : "http://ssd.jpl.nasa.gov/sbdb.cgi?sstr=2426082",
      "absolute_magnitude_h" : 20.1,
      "estimated_diameter" : {
        "kilometers" : {
          "estimated_diameter_min" : 0.2538370294,
          "estimated_diameter_max" : 0.5675968529
        },
        "meters" : {
          "estimated_diameter_min" : 253.8370293645,
          "estimated_diameter_max" : 567.5968528656
        },
        "miles" : {
          "estimated_diameter_min" : 0.1577269688,
          "estimated_diameter_max" : 0.3526882241
        },
        "feet" : {
          "estimated_diameter_min" : 832.7986794202,
          "estimated_diameter_max" : 1862.1944587557
        }
      },
      "is_potentially_hazardous_asteroid" : false,
      "close_approach_data" : [ {
        "close_approach_date" : "2004-01-15",
        "epoch_date_close_approach" : 1074153600000,
        "relative_velocity" : {
          "kilometers_per_second" : "11.6354831958",
          "kilometers_per_hour" : "41887.739504884",
          "miles_per_hour" : "26027.4123606875"
        },
        "miss_distance" : {
          "astronomical" : "0.3782636628",
          "lunar" : "147.1445617676",
          "kilometers" : "56587436",
          "miles" : "35161804"
        },
        "orbiting_body" : "Earth"
      } ],
      "orbital_data" : {
        "orbit_id" : "30",
        "orbit_determination_date" : "2017-07-31 06:21:58",
        "orbit_uncertainty" : "0",
        "minimum_orbit_intersection" : ".20967",
        "jupiter_tisserand_invariant" : "4.796",
        "epoch_osculation" : "2458000.5",
        "eccentricity" : ".1273856620432861",
        "semi_major_axis" : "1.352568694006423",
        "inclination" : "20.26633212195063",
        "ascending_node_longitude" : "135.0299645057042",
        "orbital_period" : "574.5626934432174",
        "perihelion_distance" : "1.180270835461392",
        "perihelion_argument" : "332.1366171360132",
        "aphelion_distance" : "1.524866552551454",
        "perihelion_time" : "2458199.755619894636",
        "mean_anomaly" : "235.1537056257587",
        "mean_motion" : ".6265634788130877",
        "equinox" : "J2000"
      }
    } ]
  }
}